OBJECT_NAME,OBJECT_ID,EPOCH,MEAN_MOTION,ECCENTRICITY,INCLINATION,RA_OF_ASC_NODE,ARG_OF_PERICENTER,MEAN_ANOMALY,EPHEMERIS_TYPE,CLASSIFICATION_TYPE,NORAD_CAT_ID,ELEMENT_SET_NO,REV_AT_EPOCH,BSTAR,MEAN_MOTION_DOT,MEAN_MOTION_DDOT
SWARM A,2013-067B,2026-06-26T15:20:44.992896,15.51126598,.00031344,87.3323,52.7295,97.1266,263.0351,0,U,39452,999,70771,.17634176E-3,.1032E-3,0
SWARM C,2013-067C,2026-06-26T15:20:35.994336,15.51125386,.0003128,87.3322,51.3106,97.3285,262.8331,0,U,39453,999,70767,.17543587E-3,.10267E-3,0
BRITE-CA1 (TORONTO),2014-033L,2026-06-26T14:49:50.498976,14.72690189,.0077328,97.9749,306.3725,246.2869,113.0213,0,U,40020,999,64360,.12727E-3,.796E-5,0
OCO 2,2014-035A,2026-06-26T18:27:38.798784,14.57118402,.0001504,98.2018,118.9163,83.4971,276.6399,0,U,40059,999,63744,.89547E-4,.358E-5,0
BRITE-PL2 (HEWELIUSZ),2014-049B,2026-06-26T13:04:59.538720,14.94627428,.00153772,97.9106,289.6176,79.9676,280.3278,0,U,40119,999,64284,.16298632E-3,.1709E-4,0
MMS 1,2015-011A,2026-06-26T18:00:00.998784,0.28358536,.8318851,72.2723,348.6999,167.5966,194.1759,0,U,40482,999,137,0,-.827E-5,0
MMS 2,2015-011B,2026-06-26T18:00:00.998784,0.28358496,.832166,72.2760,348.6989,167.5999,194.1666,0,U,40483,999,137,0,-.828E-5,0
MMS 3,2015-011C,2026-06-26T18:00:00.998784,0.28358494,.832003,72.2760,348.7107,167.6074,194.1405,0,U,40484,999,137,0,-.827E-5,0
MMS 4,2015-011D,2026-06-26T18:00:00.998784,0.28358512,.8319932,72.2723,348.6940,167.6171,194.1334,0,U,40485,999,137,0,-.827E-5,0
ASTROSAT,2015-052A,2026-06-26T17:04:37.073280,14.82521766,.0007862,5.9975,86.7841,174.9002,185.1206,0,U,40930,999,58124,.9949E-4,.1489E-4,0
DAMPE,2015-078A,2026-06-26T17:05:22.671744,15.30808871,.0013407,97.4561,183.2258,47.8135,312.4241,0,U,41173,999,58600,.52398E-4,.1485E-4,0
PISAT,2016-059B,2026-06-26T11:25:10.650144,14.68998033,.0029159,97.8180,177.5295,172.8528,187.3100,0,U,41784,999,52110,.15291E-3,.855E-5,0
HXMT (HUIYAN),2017-034A,2026-06-26T08:14:11.437152,15.18533597,.00319962,43.0130,132.0541,205.3816,154.5462,0,U,42758,999,49905,.23174341E-3,.4694E-4,0
FLYING LAPTOP,2017-042G,2026-06-26T15:37:04.004256,15.01203041,.00199561,97.4723,332.8218,91.4280,268.9231,0,U,42831,999,48787,.2110434E-3,.2661E-4,0
ZHANGHENG 1-01 (CSES-1),2018-015C,2026-06-26T14:43:10.981920,15.20926083,.0017394,97.6870,343.4590,231.3159,128.6520,0,U,43194,999,46607,.34608062E-3,.7616E-4,0
SALSAT,2020-068K,2026-06-26T11:58:12.031968,15.29924136,.00078098,97.8850,181.1309,268.2261,91.8084,0,U,46495,999,31678,.27078782E-3,.7768E-4,0
IXPE,2021-121A,2026-06-26T16:00:03.000096,15.10334377,.00074424,0.2297,245.9848,220.3516,297.6748,0,U,49954,999,504,.61046912E-3,.11253E-3,0
SMILE,2026-109A,2026-06-07T09:11:54.544416,7.54049028,.3310191,69.9787,209.3069,288.5544,45.7342,0,U,69123,999,248,-.36778157E-3,-.41E-6,0
