SWARM A                 
1 39452U 13067B   26177.63940964  .00010320  00000+0  17634-3 0  9993
2 39452  87.3323  52.7295 0003134  97.1266 263.0351 15.51126598707718
SWARM C                 
1 39453U 13067C   26177.63930549  .00010267  00000+0  17544-3 0  9992
2 39453  87.3322  51.3106 0003128  97.3285 262.8331 15.51125386707674
BRITE-CA1 (TORONTO)     
1 40020U 14033L   26177.61794559  .00000796  00000+0  12727-3 0  9999
2 40020  97.9749 306.3725 0077328 246.2869 113.0213 14.72690189643600
OCO 2                   
1 40059U 14035A   26177.76919906  .00000358  00000+0  89547-4 0  9993
2 40059  98.2018 118.9163 0001504  83.4971 276.6399 14.57118402637448
BRITE-PL2 (HEWELIUSZ)   
1 40119U 14049B   26177.54513355  .00001709  00000+0  16299-3 0  9993
2 40119  97.9106 289.6176 0015377  79.9676 280.3278 14.94627428642846
MMS 1                   
1 40482U 15011A   26177.75001156 -.00000827  00000+0  00000+0 0  9990
2 40482  72.2723 348.6999 8318851 167.5966 194.1759  0.28358536  1372
MMS 2                   
1 40483U 15011B   26177.75001156 -.00000828  00000+0  00000+0 0  9992
2 40483  72.2760 348.6989 8321660 167.5999 194.1666  0.28358496  1373
MMS 3                   
1 40484U 15011C   26177.75001156 -.00000827  00000+0  00000+0 0  9992
2 40484  72.2760 348.7107 8320030 167.6074 194.1405  0.28358494  1371
MMS 4                   
1 40485U 15011D   26177.75001156 -.00000827  00000+0  00000+0 0  9993
2 40485  72.2723 348.6940 8319932 167.6171 194.1334  0.28358512  1374
ASTROSAT                
1 40930U 15052A   26177.71154020  .00001489  00000+0  99490-4 0  9998
2 40930   5.9975  86.7841 0007862 174.9002 185.1206 14.82521766581248
DAMPE                   
1 41173U 15078A   26177.71206796  .00001485  00000+0  52398-4 0  9996
2 41173  97.4561 183.2258 0013407  47.8135 312.4241 15.30808871586009
PISAT                   
1 41784U 16059B   26177.47581771  .00000855  00000+0  15291-3 0  9996
2 41784  97.8180 177.5295 0029159 172.8528 187.3100 14.68998033521104
HXMT (HUIYAN)           
1 42758U 17034A   26177.34318793  .00004694  00000+0  23174-3 0  9994
2 42758  43.0130 132.0541 0031996 205.3816 154.5462 15.18533597499059
FLYING LAPTOP           
1 42831U 17042G   26177.65074079  .00002661  00000+0  21104-3 0  9998
2 42831  97.4723 332.8218 0019956  91.4280 268.9231 15.01203041487875
ZHANGHENG 1-01 (CSES-1) 
1 43194U 18015C   26177.61332155  .00007616  00000+0  34608-3 0  9998
2 43194  97.6870 343.4590 0017394 231.3159 128.6520 15.20926083466079
SALSAT                  
1 46495U 20068K   26177.49875037  .00007768  00000+0  27079-3 0  9995
2 46495  97.8850 181.1309 0007809 268.2261  91.8084 15.29924136316788
IXPE                    
1 49954U 21121A   26177.66670139  .00011253  00000+0  61047-3 0  9991
2 49954   0.2297 245.9848 0007442 220.3516 297.6748 15.10334377  5045
SMILE                   
1 69123U 26109A   26158.38327019 -.00000041  00000+0 -36778-3 0  9994
2 69123  69.9787 209.3069 3310191 288.5544  45.7342  7.54049028  2480
